[Satellite]
VERSION=1.1
NAME=CYGFM01
NICKNAME=CYGFM01
TLE1=1 41887U 16078D   18020.66284629  .00000395  00000-0  23108-4 0  9999
TLE2=2 41887  34.9533 116.1015 0015966 123.9302 236.2929 15.13812067 60811
